AQUA                    
1 27424U 02022A   26070.54165713  .00001308  00000+0  27073-3 0  9995
2 27424  98.4177  37.9403 0000562  87.5332  21.9561 14.61982283269009
CZ-4B R/B               
1 27432U 02024C   26070.40677819  .00000039  00000+0  42714-4 0  9996
2 27432  98.8835 123.8048 0050396  19.3435 351.8605 14.14547837229482
MIDORI II (ADEOS-II)    
1 27597U 02056A   26070.48381947  .00000398  00000+0  17420-3 0  9998
2 27597  98.7769  28.9737 0001520  40.5863 319.5431 14.29286831210551
H-2A R/B                
1 27601U 02056E   26070.46184550  .00000318  00000+0  12578-3 0  9994
2 27601  98.3205  30.7600 0070607 155.4238 316.4714 14.33762010214368
CZ-4B R/B               
1 28059U 03049C   26070.44655522  .00000453  00000+0  11548-3 0  9991
2 28059  98.6879  65.4202 0047317 225.4001 134.3330 14.55021992186851
CZ-2C R/B               
1 28222U 04012C   26070.14409454  .00062581  00000+0  64070-3 0  9990
2 28222  97.7220 135.5740 0012876 303.5427  56.4601 15.64701440204503
SL-16 R/B               
1 28353U 04021B   26070.50767384 -.00000265  00000+0 -11318-3 0  9994
2 28353  70.9996 228.6771 0004157   6.6060 353.5116 14.14597267123096
CZ-4B R/B               
1 28415U 04035C   26070.08716000  .00009377  00000+0  32998-3 0  9998
2 28415  97.3502 104.3128 0030769 326.3773  33.5514 15.29092863180121
CZ-2C R/B               
1 28480U 04046B   26070.51901875  .00000133  00000+0  64198-4 0  9995
2 28480  98.1980 345.3892 0139967 149.0584 211.8939 14.26992702108766
ARIANE 5 R/B            
1 28499U 04049H   26070.45160232  .00000922  00000+0  10807-3 0  9998
2 28499  98.2629 238.9745 0083818 346.1899  13.7022 14.85269440146050
CZ-2D R/B               
1 28738U 05024B   26070.50517308  .00049476  00000+0  60320-3 0  9996
2 28738  97.3603  85.7181 0005586  41.8498 318.3186 15.60330100140066
ALOS (DAICHI)           
1 28931U 06002A   26070.47715846  .00001729  00000+0  29786-3 0  9991
2 28931  98.1220  26.4236 0000867  59.6424 300.4867 14.69817023 73741
