CCSDS_OMM_VERS = 2.0
CREATION_DATE  = 
ORIGINATOR     = 

OBJECT_NAME    = AQUA
OBJECT_ID      = 2002-022A
CENTER_NAME    = EARTH
REF_FRAME      = TEME
TIME_SYSTEM    = UTC
MEAN_ELEMENT_THEORY = SGP/SGP4

EPOCH          = 2026-03-11T12:59:59.176032
MEAN_MOTION    = 14.61982283
ECCENTRICITY   = .0000562
INCLINATION    = 98.4177
RA_OF_ASC_NODE = 37.9403
ARG_OF_PERICENTER = 87.5332
MEAN_ANOMALY   = 21.9561

EPHEMERIS_TYPE = 0
CLASSIFICATION_TYPE = U
NORAD_CAT_ID   = 27424
ELEMENT_SET_NO = 999
REV_AT_EPOCH   = 26900
BSTAR          = .27073E-3
MEAN_MOTION_DOT = .1308E-4
MEAN_MOTION_DDOT = 0

CCSDS_OMM_VERS = 2.0
CREATION_DATE  = 
ORIGINATOR     = 

OBJECT_NAME    = CZ-4B R/B
OBJECT_ID      = 2002-024C
CENTER_NAME    = EARTH
REF_FRAME      = TEME
TIME_SYSTEM    = UTC
MEAN_ELEMENT_THEORY = SGP/SGP4

EPOCH          = 2026-03-11T09:45:45.635616
MEAN_MOTION    = 14.14547837
ECCENTRICITY   = .0050396
INCLINATION    = 98.8835
RA_OF_ASC_NODE = 123.8048
ARG_OF_PERICENTER = 19.3435
MEAN_ANOMALY   = 351.8605

EPHEMERIS_TYPE = 0
CLASSIFICATION_TYPE = U
NORAD_CAT_ID   = 27432
ELEMENT_SET_NO = 999
REV_AT_EPOCH   = 22948
BSTAR          = .42714E-4
MEAN_MOTION_DOT = .39E-6
MEAN_MOTION_DDOT = 0

CCSDS_OMM_VERS = 2.0
CREATION_DATE  = 
ORIGINATOR     = 

OBJECT_NAME    = MIDORI II (ADEOS-II)
OBJECT_ID      = 2002-056A
CENTER_NAME    = EARTH
REF_FRAME      = TEME
TIME_SYSTEM    = UTC
MEAN_ELEMENT_THEORY = SGP/SGP4

EPOCH          = 2026-03-11T11:36:42.002208
MEAN_MOTION    = 14.29286831
ECCENTRICITY   = .000152
INCLINATION    = 98.7769
RA_OF_ASC_NODE = 28.9737
ARG_OF_PERICENTER = 40.5863
MEAN_ANOMALY   = 319.5431

EPHEMERIS_TYPE = 0
CLASSIFICATION_TYPE = U
NORAD_CAT_ID   = 27597
ELEMENT_SET_NO = 999
REV_AT_EPOCH   = 21055
BSTAR          = .1742E-3
MEAN_MOTION_DOT = .398E-5
MEAN_MOTION_DDOT = 0

CCSDS_OMM_VERS = 2.0
CREATION_DATE  = 
ORIGINATOR     = 

OBJECT_NAME    = H-2A R/B
OBJECT_ID      = 2002-056E
CENTER_NAME    = EARTH
REF_FRAME      = TEME
TIME_SYSTEM    = UTC
MEAN_ELEMENT_THEORY = SGP/SGP4

EPOCH          = 2026-03-11T11:05:03.451200
MEAN_MOTION    = 14.33762010
ECCENTRICITY   = .0070607
INCLINATION    = 98.3205
RA_OF_ASC_NODE = 30.7600
ARG_OF_PERICENTER = 155.4238
MEAN_ANOMALY   = 316.4714

EPHEMERIS_TYPE = 0
CLASSIFICATION_TYPE = U
NORAD_CAT_ID   = 27601
ELEMENT_SET_NO = 999
REV_AT_EPOCH   = 21436
BSTAR          = .12578E-3
MEAN_MOTION_DOT = .318E-5
MEAN_MOTION_DDOT = 0

CCSDS_OMM_VERS = 2.0
CREATION_DATE  = 
ORIGINATOR     = 

OBJECT_NAME    = CZ-4B R/B
OBJECT_ID      = 2003-049C
CENTER_NAME    = EARTH
REF_FRAME      = TEME
TIME_SYSTEM    = UTC
MEAN_ELEMENT_THEORY = SGP/SGP4

EPOCH          = 2026-03-11T10:43:02.371008
MEAN_MOTION    = 14.55021992
ECCENTRICITY   = .0047317
INCLINATION    = 98.6879
RA_OF_ASC_NODE = 65.4202
ARG_OF_PERICENTER = 225.4001
MEAN_ANOMALY   = 134.3330

EPHEMERIS_TYPE = 0
CLASSIFICATION_TYPE = U
NORAD_CAT_ID   = 28059
ELEMENT_SET_NO = 999
REV_AT_EPOCH   = 18685
BSTAR          = .11548E-3
MEAN_MOTION_DOT = .453E-5
MEAN_MOTION_DDOT = 0

CCSDS_OMM_VERS = 2.0
CREATION_DATE  = 
ORIGINATOR     = 

OBJECT_NAME    = CZ-2C R/B
OBJECT_ID      = 2004-012C
CENTER_NAME    = EARTH
REF_FRAME      = TEME
TIME_SYSTEM    = UTC
MEAN_ELEMENT_THEORY = SGP/SGP4

EPOCH          = 2026-03-11T03:27:29.768256
MEAN_MOTION    = 15.64701440
ECCENTRICITY   = .00128761
INCLINATION    = 97.7220
RA_OF_ASC_NODE = 135.5740
ARG_OF_PERICENTER = 303.5427
MEAN_ANOMALY   = 56.4601

EPHEMERIS_TYPE = 0
CLASSIFICATION_TYPE = U
NORAD_CAT_ID   = 28222
ELEMENT_SET_NO = 999
REV_AT_EPOCH   = 20450
BSTAR          = .64070035E-3
MEAN_MOTION_DOT = .62581E-3
MEAN_MOTION_DDOT = 0

CCSDS_OMM_VERS = 2.0
CREATION_DATE  = 
ORIGINATOR     = 

OBJECT_NAME    = SL-16 R/B
OBJECT_ID      = 2004-021B
CENTER_NAME    = EARTH
REF_FRAME      = TEME
TIME_SYSTEM    = UTC
MEAN_ELEMENT_THEORY = SGP/SGP4

EPOCH          = 2026-03-11T12:11:03.019776
MEAN_MOTION    = 14.14597267
ECCENTRICITY   = .0004157
INCLINATION    = 70.9996
RA_OF_ASC_NODE = 228.6771
ARG_OF_PERICENTER = 6.6060
MEAN_ANOMALY   = 353.5116

EPHEMERIS_TYPE = 0
CLASSIFICATION_TYPE = U
NORAD_CAT_ID   = 28353
ELEMENT_SET_NO = 999
REV_AT_EPOCH   = 12309
BSTAR          = -.11318E-3
MEAN_MOTION_DOT = -.265E-5
MEAN_MOTION_DDOT = 0

CCSDS_OMM_VERS = 2.0
CREATION_DATE  = 
ORIGINATOR     = 

OBJECT_NAME    = CZ-4B R/B
OBJECT_ID      = 2004-035C
CENTER_NAME    = EARTH
REF_FRAME      = TEME
TIME_SYSTEM    = UTC
MEAN_ELEMENT_THEORY = SGP/SGP4

EPOCH          = 2026-03-11T02:05:30.624000
MEAN_MOTION    = 15.29092863
ECCENTRICITY   = .00307695
INCLINATION    = 97.3502
RA_OF_ASC_NODE = 104.3128
ARG_OF_PERICENTER = 326.3773
MEAN_ANOMALY   = 33.5514

EPHEMERIS_TYPE = 0
CLASSIFICATION_TYPE = U
NORAD_CAT_ID   = 28415
ELEMENT_SET_NO = 999
REV_AT_EPOCH   = 18012
BSTAR          = .32998018E-3
MEAN_MOTION_DOT = .9377E-4
MEAN_MOTION_DDOT = 0

CCSDS_OMM_VERS = 2.0
CREATION_DATE  = 
ORIGINATOR     = 

OBJECT_NAME    = CZ-2C R/B
OBJECT_ID      = 2004-046B
CENTER_NAME    = EARTH
REF_FRAME      = TEME
TIME_SYSTEM    = UTC
MEAN_ELEMENT_THEORY = SGP/SGP4

EPOCH          = 2026-03-11T12:27:23.220000
MEAN_MOTION    = 14.26992702
ECCENTRICITY   = .0139967
INCLINATION    = 98.1980
RA_OF_ASC_NODE = 345.3892
ARG_OF_PERICENTER = 149.0584
MEAN_ANOMALY   = 211.8939

EPHEMERIS_TYPE = 0
CLASSIFICATION_TYPE = U
NORAD_CAT_ID   = 28480
ELEMENT_SET_NO = 999
REV_AT_EPOCH   = 10876
BSTAR          = .64198E-4
MEAN_MOTION_DOT = .133E-5
MEAN_MOTION_DDOT = 0

CCSDS_OMM_VERS = 2.0
CREATION_DATE  = 
ORIGINATOR     = 

OBJECT_NAME    = ARIANE 5 R/B
OBJECT_ID      = 2004-049H
CENTER_NAME    = EARTH
REF_FRAME      = TEME
TIME_SYSTEM    = UTC
MEAN_ELEMENT_THEORY = SGP/SGP4

EPOCH          = 2026-03-11T10:50:18.440448
MEAN_MOTION    = 14.85269440
ECCENTRICITY   = .0083818
INCLINATION    = 98.2629
RA_OF_ASC_NODE = 238.9745
ARG_OF_PERICENTER = 346.1899
MEAN_ANOMALY   = 13.7022

EPHEMERIS_TYPE = 0
CLASSIFICATION_TYPE = U
NORAD_CAT_ID   = 28499
ELEMENT_SET_NO = 999
REV_AT_EPOCH   = 14605
BSTAR          = .10807E-3
MEAN_MOTION_DOT = .922E-5
MEAN_MOTION_DDOT = 0

CCSDS_OMM_VERS = 2.0
CREATION_DATE  = 
ORIGINATOR     = 

OBJECT_NAME    = CZ-2D R/B
OBJECT_ID      = 2005-024B
CENTER_NAME    = EARTH
REF_FRAME      = TEME
TIME_SYSTEM    = UTC
MEAN_ELEMENT_THEORY = SGP/SGP4

EPOCH          = 2026-03-11T12:07:26.954112
MEAN_MOTION    = 15.60330100
ECCENTRICITY   = .0005586
INCLINATION    = 97.3603
RA_OF_ASC_NODE = 85.7181
ARG_OF_PERICENTER = 41.8498
MEAN_ANOMALY   = 318.3186

EPHEMERIS_TYPE = 0
CLASSIFICATION_TYPE = U
NORAD_CAT_ID   = 28738
ELEMENT_SET_NO = 999
REV_AT_EPOCH   = 14006
BSTAR          = .6032E-3
MEAN_MOTION_DOT = .49476E-3
MEAN_MOTION_DDOT = 0

CCSDS_OMM_VERS = 2.0
CREATION_DATE  = 
ORIGINATOR     = 

OBJECT_NAME    = ALOS (DAICHI)
OBJECT_ID      = 2006-002A
CENTER_NAME    = EARTH
REF_FRAME      = TEME
TIME_SYSTEM    = UTC
MEAN_ELEMENT_THEORY = SGP/SGP4

EPOCH          = 2026-03-11T11:27:06.490944
MEAN_MOTION    = 14.69817023
ECCENTRICITY   = .0000867
INCLINATION    = 98.1220
RA_OF_ASC_NODE = 26.4236
ARG_OF_PERICENTER = 59.6424
MEAN_ANOMALY   = 300.4867

EPHEMERIS_TYPE = 0
CLASSIFICATION_TYPE = U
NORAD_CAT_ID   = 28931
ELEMENT_SET_NO = 999
REV_AT_EPOCH   = 7374
BSTAR          = .29786E-3
MEAN_MOTION_DOT = .1729E-4
MEAN_MOTION_DDOT = 0

